EUTELSAT 8 WEST B       
1 40875U 15039B   25326.08557653 -.00000044  00000+0  00000+0 0  9996
2 40875   0.0666 355.4980 0004185 250.1075 198.5509  1.00271302 37582
EUTELSAT 9B             
1 41310U 16005A   25326.08886986  .00000084  00000+0  00000+0 0  9992
2 41310   0.0787  79.1066 0004315 181.2701 201.9565  1.00272990 36046
EUTELSAT 65 WEST A      
1 41382U 16014A   25326.08933640 -.00000255  00000+0  00000+0 0  9992
2 41382   0.0574  17.9467 0002463 230.9319 139.4411  1.00270844 35458
EUTELSAT 117 WEST B     
1 41589U 16038B   25325.63586161  .00000011  00000+0  00000+0 0  9998
2 41589   0.0092 154.0473 0000134  60.9075 317.8661  1.00267678 34588
EUTELSAT 172B           
1 42741U 17029B   25325.76447571  .00000017  00000+0  00000+0 0  9991
2 42741   0.0131 180.8105 0000272 233.1936  94.2411  1.00273206 31653
EUTELSAT 7C             
1 44334U 19034B   25326.08852321  .00000070  00000+0  00000+0 0  9997
2 44334   0.0750 182.7836 0002979  36.2693 241.1942  1.00270900  4751
EUTELSAT 5 WEST B       
1 44624U 19067A   25326.08609653 -.00000020  00000+0  00000+0 0  9999
2 44624   0.0692 330.4727 0003110 269.3133 207.5664  1.00271334 22361
EUTELSAT KONNECT        
1 45027U 20005B   25326.08852321  .00000071  00000+0  00000+0 0  9998
2 45027   0.0669  99.6952 0001408 203.2334 157.4786  1.00270237 22252
